#dP2022  8 29  0  0  0.00000000      97 __u+U IGS14 FIT  IAC
## 2225  86400.00000000   900.00000000 59820 0.0000000000000
+  117   C06C07C08C09C10C11C12C13C14C16C19C20C21C22C23C24C25
+        C26C27C28C29C30C32C33C34C35C36C37C38C39C40C41C42C43
+        C44C45C46E01E02E03E04E05E07E08E09E10E11E12E13E14E15
+        E18E19E21E24E25E26E27E30E31E33E34E36G01G02G03G04G05
+        G06G07G08G09G10G11G12G13G14G15G16G17G18G19G20G21G22
+        G23G24G25G26G27G28G29G30G31G32J02J03R01R02R03R04R05
+        R07R08R09R11R12R13R14R15R17R18R19R20R21R24R25  0  0
++         7  7  7  7  7  7  7  7  7  7  6  5  6  6  6  6  6
++         6  6  6  5  5  5  6  6  6  6  6  6  7  6  5  6  6
++         6  6  6  4  4  4  4  4  4  4  4  4  4  4  4  4  4
++         5  4  4  4  4  4  4  4  4  4  4  4  3  4  3  3  4
++         3  3  3  3  3  3  3  4  3  4  4  3  3  3  4  3  3
++         4  4  3  3  3  4  3  3  3  3  9  9  7  6  6  6  6
++         6  6  6  8  6  7  6  6  6  6  7  6  6  6 10  0  0
%c M  cc GPS ccc cccc cccc cccc cccc ccccc ccccc ccccc ccccc
%c cc cc ccc ccc cccc cccc cccc cccc ccccc ccccc ccccc ccccc
%f  1.2500000  1.025000000  0.00000000000  0.000000000000000
%f  0.0000000  0.000000000  0.00000000000  0.000000000000000
%i    0    0    0    0      0      0      0      0         0
%i    0    0    0    0      0      0      0      0         0
/* INFORMATION & ANALYSIS CENTER (IAC)            FINAL DATA
/* S/V CLOCKS ARE ALIGNED TO GNSS TIME                      
/* G:C1WC2W R:C1PC2P E:C1XC5X C:C2IC6I J:C1CC2S             
/* PCV:IGS14_2218 OL/AL:FES2004  NONE     YN ORB:CoN CLK:CoN
*  2022 08 29 20 30  0.00000000
PC06  -2996.970514  36276.392414 -21065.933617    720.914633
PC07 -11777.403342  25614.101256  31364.545594    -69.870128
PC08 -18630.369476  35679.249579 -12871.521890    456.379426
PC09   2837.696273  39668.479719 -12849.768296   -879.765511
PC10  -3082.542793  26993.720957  32521.635921    103.012674
PC11 -16126.045458    731.941784  22820.086772   -439.972003
PC12 -17519.097880 -17516.561556  12854.518641   -535.533361
PC13 -12648.711182  35971.502376 -18189.209269     66.278757
PC14 -26848.299741   2972.571769  -6876.937640    619.836624
PC16  -4994.345964  34174.807026 -23803.782693    140.728468
PC19  21678.655727  -8960.734306  15148.624331   -538.438163
PC20  27813.422268   2357.285732   -723.821989    340.166586
PC21 -17544.132398 -13093.216218  17301.579166   -287.510721
PC22   2780.457385 -15598.496894  22965.029855   -391.516276
PC23  -8946.856784  24838.468506   9059.607502   -968.221391
PC24 -18341.997303     61.337071 -21039.127987   -970.933403
PC25 -18849.106805  19087.980495  -7732.124962   -685.785372
PC26  -7871.178165 -16129.558389 -21367.983161     -0.110523
PC27  14637.218048  23279.927455  -4748.172016     12.884495
PC28   2634.928480  25050.530562  12023.924789      6.957565
PC29  11297.965173 -12096.555262 -22474.554723      6.500887
PC30  18965.855884   8244.099994 -18738.319551    502.540208
PC32  17600.443098  12985.061211 -17329.323665   -829.037933
PC33 -21679.998463   9048.701026 -15051.620523   -532.244735
PC34 -18848.904294  -7144.823898  19292.145457   -325.206638
PC35  -2434.989638 -24545.732738 -13086.476508    434.967464
PC36  19463.984806 -18209.848910   8286.525595   -967.695374
PC37   6452.979425  17317.172248  20937.171366    -32.835598
PC38 -22540.652880  35429.123404  -4717.993870     20.613744
PC39  -7512.820283  30541.245674 -27965.401848     -0.330268
PC40 -17237.990100  18869.768676  33479.094026     -3.186376
PC41  -3317.798718  15568.136815 -22876.064347    -30.562592
PC42 -27660.167707  -3096.097825   1899.510009   -201.805200
PC43 -11905.979730  11377.362251  22516.826336     11.376198
PC44 -15376.388287 -22865.461790   4486.448142     33.390713
PC45   8725.007095 -24775.549138  -9381.242976    847.638798
PC46  18864.022285  -1826.378640  20479.822769   -513.144713
PE01  27322.186574  -5537.589883   9956.167069   -544.090791
PE02 -27359.323362   5696.236583  -9771.068235    321.451102
PE03 -25071.762158  -4063.938077 -15194.823444   -594.524559
PE04  12434.615083 -12006.471313  24032.978144  -1104.165997
PE05 -23242.799135 -18112.853700   2788.604131   -148.911936
PE07   7941.965201  21401.178180 -18847.563605   -700.910258
PE08 -12199.769344  12016.785785 -24145.011925   -589.783285
PE09  -7960.963662 -21263.219068  18982.840398   -640.203952
PE10   6118.511058 -28168.867201  -6708.030274   -473.226466
PE11   -451.854766 -29358.624176   3749.820429   2437.891536
PE12  11479.973383 -22598.169567 -15301.394712   -141.257360
PE13     19.189407  29449.629956  -3004.270073    430.429967
PE14   2872.314790  20672.809838  15841.301144  -1735.261684
PE15 -11462.415669  22478.370164  15479.813428    723.751128
PE18   8930.568977 -17979.508027 -23018.288263  -1037.412891
PE19  25701.512086   6359.380106  13238.655186  -4673.930507
PE21  17517.352207   8473.241754  22312.354379   -754.685673
PE24   4149.895131 -18963.216755 -22344.569107   -808.022609
PE25 -17269.744280  -8666.725587 -22410.544592   -586.112944
PE26  11871.072685  18304.651645 -20012.319290  -1552.315865
PE27  -2964.459016  18693.228625  22770.708030   -379.826700
PE30 -22154.284729  17437.397803   9035.710278   -794.436781
PE31  21513.020735 -17802.798616  -9803.547524   -502.555224
PE33  16115.751013  -2283.634649 -24725.016486   -453.618601
PE34 -16109.664414   2550.619342  24691.425716     -1.883964
PE36 -11381.855213 -19082.670928  19552.582932   -423.870365
PG01 -13214.597382  16908.633022  15111.455179    293.131312
PG02  14852.641517  -5544.788702 -20721.460614   -647.704770
PG03 -22802.732647  12416.143396  -5433.885817   -341.688016
PG04 -14241.672641   7168.107857 -21253.488908   -126.247165
PG05  25148.035606  -5056.729005  -7334.834363    -94.715782
PG06   7636.473921  19320.967006 -16444.986495    442.950520
PG07  -5380.466372  25675.221895  -1296.182119    311.436796
PG08 -20283.441385   -686.719118  17275.772675    -82.469862
PG09  -3151.875341  16286.850314 -20810.184297   -302.459836
PG10  -4728.409298 -14221.203760  22070.685796     -0.983404
PG11  13421.308543   8165.125640 -21421.562544    -13.253075
PG12  24109.404365 -10213.516558  -4378.643886   -270.070748
PG13  21099.632949  10472.883749  12286.718011    377.436696
PG14   2325.363511  15397.687416  21515.630764   -106.844721
PG15  20456.447459  -1736.387297  16576.871511    -33.273653
PG16 -23809.594603  -2274.715911 -12300.249524   -522.415179
PG17   9949.368553  21215.841966  12881.706608    653.719691
PG18   5537.384122 -25885.422580   -956.471888     65.869325
PG19  17107.775050  20262.067681   2823.378221    203.746764
PG20  19253.464710   3856.398823 -17773.072422    490.725802
PG21 -15278.811008   7342.648892  20888.999164    160.032551
PG22 -18425.368242 -19243.985181   1278.444184    318.540350
PG23   6869.978649 -16973.841740  19182.610163    -38.383527
PG24  14183.513980 -13308.145397  17587.832284    152.901686
PG25  15044.732415 -16595.979284 -14344.712711    366.322780
PG26 -17614.959384  -7289.489401 -18706.673679    226.108813
PG27 -22659.813432 -11768.442767   7797.239824    216.273594
PG28  11597.801864  11974.647935  21133.575171    340.322551
PG29   4685.411226 -15269.872674 -21252.210522   -547.095679
PG30   2087.916315  24844.680071   8873.722687   -536.495412
PG31  -9277.117575 -17546.749555 -17557.025295   -191.460288
PG32 -13684.327974 -20478.070588  10336.955798   -217.938813
PJ02 -31213.631538  27464.025942  12053.443378     -4.013467
PJ03 -25621.060034  25464.520231  26824.607045     -1.069431
PR01   9086.355981  -8794.400695  22151.324822     13.927292
PR02 -11470.358285 -12387.681523  19185.843867    528.290811
PR03 -23651.261946  -8418.554012   4727.699072     62.758313
PR04 -22428.088912    -59.740738 -12139.765898    155.687986
PR05  -9011.503657   8381.606558 -22339.992026     98.763280
PR07  23852.686745   8075.941715  -3861.276648     40.158226
PR08  22336.376683   -234.197871  12341.547298    -66.937551
PR09   -627.027369  15388.393827  20332.026136     73.881531
PR11  19160.013448 -12023.419492  11821.214144 999999.999999
PR12  14645.111639 -19750.017126  -6732.851769     20.593526
PR13   2196.967603 -16065.255155 -19699.163153    -26.245119
PR14 -12878.589386  -1942.762713 -21909.931396     24.383267
PR15 -19404.889536  12454.692978 -10876.267741     93.982117
PR17 -12010.885262 -14711.454125  17007.046112    556.700325
PR18 -10170.295295   2375.420541  23283.428612     39.900190
PR19  -4191.445291  17395.202440  18182.539201   -201.768635
PR20   5892.908088  24800.309171   -242.969038    -77.431964
PR21  11994.255826  13457.999741 -18067.747550   -329.543951
PR24  -6897.707164 -24526.540825    956.696947    111.662337
PR25  10465.029027  -2869.899205 -23061.445872 999999.999999
EOF
